[
    {
        "Altitude(m)": 622200.1480107388,
        "Argument of Periapsis(deg)": 0.0,
        "Eccentricity": 0.0,
        "Inclination(deg)": 60.0,
        "Latitude(deg)": -52.16265086248523,
        "Longitude(deg)": -107.63929655649221,
        "Mean Anomaly(deg)": 294.5455,
        "RAAN(deg)": 40.0,
        "Satellite Name": "Test1 194",
        "Satellite Number": 194,
        "Semi-Major Axis(m)": 6980739.136638005,
        "Time(s)": 0
    },
    {
        "Altitude(m)": 622058.3160712647,
        "Argument of Periapsis(deg)": 0.00010418945913296404,
        "Eccentricity": 0.0,
        "Inclination(deg)": 60.0,
        "Latitude(deg)": -51.79940102756493,
        "Longitude(deg)": -106.87123612144374,
        "Mean Anomaly(deg)": 295.1656061454619,
        "RAAN(deg)": 39.99957995086026,
        "Satellite Name": "Test1 194",
        "Satellite Number": 194,
        "Semi-Major Axis(m)": 6980739.136638005,
        "Time(s)": 10
    }
]